NORAD_CAT_ID,OBJECT_NAME,OBJECT_TYPE,EPOCH,MEAN_MOTION,ECCENTRICITY,INCLINATION,RA_OF_ASC_NODE,ARG_OF_PERICENTER,MEAN_ANOMALY,BSTAR,MEAN_MOTION_DOT,MEAN_MOTION_DDOT,TLE_LINE0,TLE_LINE1,TLE_LINE2,SEMIMAJOR_AXIS,PERIOD,APOGEE,PERIGEE,DECAYED
52605.0,STARLINK-4000,PAYLOAD,2022-12-03 02:29:49,15.08831319,0.000226,53.2174,237.8429,35.1764,324.9377,7.1175e-05,8.44e-06,0.0,0 STARLINK-4000,1 52605U 22052H   22337.10404923  .00000844  00000-0  71175-4 0  9990,2 52605  53.2174 237.8429 0002260  35.1764 324.9377 15.08831319 30741,6917.906999999997,95.438,541.335,538.2080000000002,0.0
52605.0,STARLINK-4000,PAYLOAD,2022-12-04 02:20:37,15.08829856,0.0002288,53.2171,233.3826,34.0273,326.0865,3.8169e-05,3.19e-06,0.0,0 STARLINK-4000,1 52605U 22052H   22338.09765660  .00000319  00000-0  38169-4 0  9990,2 52605  53.2171 233.3826 0002288  34.0273 326.0865 15.08829856 31269,6917.911,95.438,541.359,538.194,0.0
52605.0,STARLINK-4000,PAYLOAD,2022-12-04 10:17:32,15.08838786,0.0002316,53.2174,231.8949,34.6563,325.458,5.6373e-05,6.09e-06,0.0,0 STARLINK-4000,1 52605U 22052H   22338.42885185  .00000609  00000-0  56373-4 0  9991,2 52605  53.2174 231.8949 0002316  34.6563 325.4580 15.08838786 31316,6917.884,95.438,541.351,538.1469999999998,0.0
52605.0,STARLINK-4000,PAYLOAD,2022-12-05 02:11:23,15.08859997,0.0002325,53.2164,228.9227,31.6917,328.4215,-1.3428e-05,-5.02e-06,0.0,0 STARLINK-4000,1 52605U 22052H   22339.09123938 -.00000502  00000-0 -13428-4 0  9994,2 52605  53.2164 228.9227 0002325  31.6917 328.4215 15.08859997 31417,6917.819,95.436,541.293,538.076,0.0
52605.0,STARLINK-4000,PAYLOAD,2022-12-05 10:08:19,15.0884625,0.0002345,53.2167,227.4352,34.4886,325.6258,0.00012228,1.659e-05,0.0,0 STARLINK-4000,1 52605U 22052H   22339.42244393  .00001659  00000-0  12228-3 0  9998,2 52605  53.2167 227.4352 0002345  34.4886 325.6258 15.08846250 31460,6917.861,95.437,541.349,538.104,0.0
52605.0,STARLINK-4000,PAYLOAD,2022-12-05 16:29:51,15.08848285,0.0002398,53.2176,226.2453,34.0816,326.033,0.00014023,1.945e-05,0.0,0 STARLINK-4000,1 52605U 22052H   22339.68740330  .00001945  00000-0  14023-3 0  9991,2 52605  53.2176 226.2453 0002398  34.0816 326.0330 15.08848285 31136,6917.855,95.437,541.379,538.061,0.0
52605.0,STARLINK-4000,PAYLOAD,2022-12-06 09:59:06,15.08841448,0.0002321,53.2169,222.9749,32.3395,327.7739,6.2755e-05,7.11e-06,0.0,0 STARLINK-4000,1 52605U 22052H   22340.41604640  .00000711  00000-0  62755-4 0  9993,2 52605  53.2169 222.9749 0002321  32.3395 327.7739 15.08841448 31616,6917.876,95.437,541.347,538.135,0.0
52605.0,STARLINK-4000,PAYLOAD,2022-12-06 11:34:29,15.08842438,0.0002269,53.2169,222.6773,33.42,326.6935,5.0738e-05,5.19e-06,0.0,0 STARLINK-4000,1 52605U 22052H   22340.48228605  .00000519  00000-0  50738-4 0  9997,2 52605  53.2169 222.6773 0002269  33.4200 326.6935 15.08842438 31254,6917.873000000001,95.437,541.308,538.168,0.0
52605.0,STARLINK-4000,PAYLOAD,2022-12-06 19:31:26,15.08830103,0.0002317,53.2171,221.1913,32.2957,327.8177,-0.00014121,-2.534e-05,0.0,0 STARLINK-4000,1 52605U 22052H   22340.81349949 -.00002534  00000-0 -14121-3 0  9995,2 52605  53.2171 221.1913 0002317  32.2957 327.8177 15.08830103 31300,6917.911,95.438,541.379,538.173,0.0
52605.0,STARLINK-4000,PAYLOAD,2022-12-07 01:52:58,15.08833845,0.000232,53.2168,220.0012,33.0175,327.0961,-0.000167,-2.945e-05,0.0,0 STARLINK-4000,1 52605U 22052H   22341.07845912 -.00002945  00000-0 -16700-3 0  9996,2 52605  53.2168 220.0012 0002320  33.0175 327.0961 15.08833845 31713,6917.899,95.438,541.369,538.159,0.0
52605.0,STARLINK-4000,PAYLOAD,2022-12-07 16:11:27,15.08834079,0.0002324,53.2168,217.325,32.1939,327.9195,-6.0099e-05,-1.245e-05,0.0,0 STARLINK-4000,1 52605U 22052H   22341.67461828 -.00001245  00000-0 -60099-4 0  9995,2 52605  53.2168 217.3250 0002324  32.1939 327.9195 15.08834079 31435,6917.898,95.438,541.371,538.156,0.0
52605.0,STARLINK-4000,PAYLOAD,2022-12-08 01:43:45,15.08846342,0.0002393,53.2166,215.5408,34.4666,325.6481,6.1963e-05,6.98e-06,0.0,0 STARLINK-4000,1 52605U 22052H   22342.07204909  .00000698  00000-0  61963-4 0  9995,2 52605  53.2166 215.5408 0002393  34.4666 325.6481 15.08846342 31862,6917.861,95.437,541.381,538.071,0.0
52605.0,STARLINK-4000,PAYLOAD,2022-12-08 22:23:45,15.08848139,0.0002346,53.2168,211.6747,36.026,324.089,0.0003133,4.703e-05,0.0,0 STARLINK-4000,1 52605U 22052H   22342.93316110  .00004703  00000-0  31330-3 0  9993,2 52605  53.2168 211.6747 0002346  36.0260 324.0890 15.08848139 31620,6917.856,95.437,541.3430000000002,538.0980000000002,0.0
52605.0,STARLINK-4000,PAYLOAD,2022-12-09 19:03:47,15.08827771,0.0002352,53.2157,207.8095,34.1913,325.923,-0.00018786,-3.276e-05,0.0,0 STARLINK-4000,1 52605U 22052H   22343.79429784 -.00003276  00000-0 -18786-3 0  9996,2 52605  53.2157 207.8095 0002352  34.1913 325.9230 15.08827771 32125,6917.918000000002,95.438,541.41,538.156,0.0
52605.0,STARLINK-4000,PAYLOAD,2022-12-09 23:49:56,15.08827142,0.0002328,53.2155,206.9175,36.7495,323.3656,-0.00031954,-5.369e-05,0.0,0 STARLINK-4000,1 52605U 22052H   22343.99301574 -.00005369  00000-0 -31954-3 0  9991,2 52605  53.2155 206.9175 0002328  36.7495 323.3656 15.08827142 31785,6917.92,95.438,541.395,538.174,0.0
52605.0,STARLINK-4000,PAYLOAD,2022-12-10 17:19:11,15.08829103,0.0002307,53.2152,203.6461,34.5991,325.5151,-0.0001375,-2.475e-05,0.0,0 STARLINK-4000,1 52605U 22052H   22344.72165999 -.00002475  00000-0 -13750-3 0  9991,2 52605  53.2152 203.6461 0002307  34.5991 325.5151 15.08829103 32265,6917.9140000000025,95.438,541.375,538.183,0.0
52605.0,STARLINK-4000,PAYLOAD,2022-12-10 18:54:34,15.08835713,0.0002379,53.2155,203.3491,34.8589,325.2559,-8.453100000000001e-05,-1.633e-05,0.0,0 STARLINK-4000,1 52605U 22052H   22344.78789921 -.00001633  00000-0 -84531-4 0  9995,2 52605  53.2155 203.3491 0002379  34.8589 325.2559 15.08835713 31906,6917.893,95.438,541.404,538.113,0.0
52605.0,STARLINK-4000,PAYLOAD,2022-12-11 01:16:07,15.0883231,0.0002293,53.215,202.1597,35.1311,324.9832,0.00024748,3.652e-05,0.0,0 STARLINK-4000,1 52605U 22052H   22345.05286344  .00003652  00000-0  24748-3 0  9991,2 52605  53.2150 202.1597 0002293  35.1311 324.9832 15.08832310 31941,6917.904,95.438,541.355,538.183,0.0
52605.0,STARLINK-4000,PAYLOAD,2022-12-11 18:45:21,15.08844742,0.0002331,53.2148,198.8887,35.6117,324.503,0.00050001,7.68e-05,0.0,0 STARLINK-4000,1 52605U 22052H   22345.78150429  .00007680  00000-0  50001-3 0  9991,2 52605  53.2148 198.8887 0002331  35.6117 324.5030 15.08844742 32425,6917.866,95.437,541.3430000000002,538.118,0.0
52605.0,STARLINK-4000,PAYLOAD,2022-12-11 20:20:45,15.08846958,0.0002376,53.2147,198.5918,35.944,324.1712,0.00052785,8.124e-05,0.0,0 STARLINK-4000,1 52605U 22052H   22345.84774415  .00008124  00000-0  52785-3 0  9990,2 52605  53.2147 198.5918 0002376  35.9440 324.1712 15.08846958 32061,6917.859,95.437,541.368,538.08,0.0
52605.0,STARLINK-4000,PAYLOAD,2022-12-12 13:49:59,15.08852707,0.0002486,53.2145,195.3209,37.6417,322.4749,0.00035301,5.336e-05,0.0,0 STARLINK-4000,1 52605U 22052H   22346.57637969  .00005336  00000-0  35301-3 0  9990,2 52605  53.2145 195.3209 0002486  37.6417 322.4749 15.08852707 32174,6917.842,95.437,541.4259999999998,537.987,0.0
52605.0,STARLINK-4000,PAYLOAD,2022-12-12 23:22:18,15.08843897,0.0002446,53.2146,193.5359,37.561,322.5553,5.3768e-05,5.68e-06,0.0,0 STARLINK-4000,1 52605U 22052H   22346.97382048  .00000568  00000-0  53768-4 0  9999,2 52605  53.2146 193.5359 0002446  37.5610 322.5553 15.08843897 32603,6917.868,95.437,541.4259999999998,538.0409999999998,0.0
52605.0,STARLINK-4000,PAYLOAD,2022-12-13 13:40:46,15.08849145,0.0002598,53.215,190.8599,38.6613,321.4565,0.00016617,2.358e-05,0.0,0 STARLINK-4000,1 52605U 22052H   22347.56997823  .00002358  00000-0  16617-3 0  9998,2 52605  53.2150 190.8599 0002598  38.6613 321.4565 15.08849145 32329,6917.852,95.437,541.515,537.92,0.0
52605.0,STARLINK-4000,PAYLOAD,2022-12-13 20:02:18,15.08845943,0.0002437,53.2154,189.6694,39.2231,320.8938,6.2116e-05,7.000000000000003e-06,0.0,0 STARLINK-4000,1 52605U 22052H   22347.83493782  .00000700  00000-0  62116-4 0  9998,2 52605  53.2154 189.6694 0002437  39.2231 320.8938 15.08845943 32363,6917.861999999999,95.437,541.413,538.0409999999998,0.0
52605.0,STARLINK-4000,PAYLOAD,2022-12-14 07:10:00,15.08839298,0.0002159,53.2157,187.5868,39.2001,320.9147,-1.4557e-05,-5.2e-06,0.0,0 STARLINK-4000,1 52605U 22052H   22348.29862104 -.00000520  00000-0 -14557-4 0  9995,2 52605  53.2157 187.5868 0002159  39.2001 320.9147 15.08839298 32800,6917.8830000000025,95.438,541.241,538.254,0.0
52605.0,STARLINK-4000,PAYLOAD,2022-12-14 16:42:19,15.08838905,0.0002169,53.2159,185.803,37.3881,322.7262,3.4611e-05,2.63e-06,0.0,0 STARLINK-4000,1 52605U 22052H   22348.69606155  .00000263  00000-0  34611-4 0  9996,2 52605  53.2159 185.8030 0002169  37.3881 322.7262 15.08838905 32497,6917.884,95.438,541.249,538.248,0.0
52605.0,STARLINK-4000,PAYLOAD,2022-12-15 08:36:10,15.08844261,0.0002305,53.2165,182.83,38.5484,321.5672,6.3684e-05,7.25e-06,0.0,0 STARLINK-4000,1 52605U 22052H   22349.35845764  .00000725  00000-0  63684-4 0  9996,2 52605  53.2165 182.8300 0002305  38.5484 321.5672 15.08844261 32961,6917.8669999999975,95.437,541.327,538.138,0.0
52605.0,STARLINK-4000,PAYLOAD,2022-12-15 13:22:19,15.08845613,0.0002333,53.2164,181.9379,38.6,321.5159,9.3043e-05,1.193e-05,0.0,0 STARLINK-4000,1 52605U 22052H   22349.55717567  .00001193  00000-0  93043-4 0  9999,2 52605  53.2164 181.9379 0002333  38.6000 321.5159 15.08845613 32627,6917.863,95.437,541.342,538.114,0.0
52605.0,STARLINK-4000,PAYLOAD,2022-12-15 19:43:52,15.08846741,0.0002469,53.2161,180.7494,39.5757,320.5415,0.00015132,2.121e-05,0.0,0 STARLINK-4000,1 52605U 22052H   22349.82213305  .00002121  00000-0  15132-3 0  9994,2 52605  53.2161 180.7494 0002469  39.5757 320.5415 15.08846741 32669,6917.86,95.437,541.433,538.0169999999998,0.0
